EUTELSAT 8 WEST B       
1 40875U 15039B   26011.16302187 -.00000051  00000+0  00000+0 0  9995
2 40875   0.0645  11.6857 0004185 276.7169 232.9717  1.00272132 38083
EUTELSAT 9B             
1 41310U 16005A   26011.16640190  .00000076  00000+0  00000+0 0  9999
2 41310   0.0233  48.2512 0004488 239.9897 251.3252  1.00270144 36549
EUTELSAT 65 WEST A      
1 41382U 16014A   26011.15166846 -.00000261  00000+0  00000+0 0  9995
2 41382   0.0554 329.9787 0002224 326.8477 163.2325  1.00270946 35960
EUTELSAT 117 WEST B     
1 41589U 16038B   26011.23918265  .00000003  00000+0  00000+0 0  9992
2 41589   0.0103 122.0477 0000316 241.1043  76.7100  1.00270723 35080
EUTELSAT 172B           
1 42741U 17029B   26011.15392248  .00000009  00000+0  00000+0 0  9998
2 42741   0.0299 124.5579 0000078 325.7401 247.7563  1.00271490 32159
EUTELSAT 7C             
1 44334U 19034B   26011.16596857  .00000063  00000+0  00000+0 0  9999
2 44334   0.0756 180.4091 0003152  95.1195 261.8736  1.00271568  5268
EUTELSAT 5 WEST B       
1 44624U 19067A   26011.16362854 -.00000027  00000+0  00000+0 0  9996
2 44624   0.0646 342.5062 0003112 310.5146 231.5475  1.00272571 22867
EUTELSAT KONNECT        
1 45027U 20005B   26011.16596857  .00000064  00000+0  00000+0 0  9990
2 45027   0.0688  93.8531 0001189 191.4148 252.3380  1.00271522 22768
